{
  "type": "FeatureCollection",
  "features": [
    {
      "type": "Feature",
      "properties": {
        "norad_id": 33376,
        "name": "GALAXY 19 (G-19)",
        "group": "intelsat",
        "lat": 0.0318475523719512,
        "lon": 67.07289480285839,
        "alt_km": 35799.778218223815,
        "timestamp": "2025-12-09T05:43:20.395640+00:00",
        "meta_object_name": "GALAXY 19 (G-19)",
        "meta_object_id": "2008-045A",
        "meta_epoch": "2025-12-08T12:23:15.078336",
        "meta_mean_motion": 1.00269772,
        "meta_eccentricity": 0.00033922,
        "meta_inclination": 0.0166,
        "meta_ra_of_asc_node": 308.7127,
        "meta_arg_of_pericenter": 322.4993,
        "meta_mean_anomaly": 255.1198,
        "meta_ephemeris_type": 0,
        "meta_classification_type": "U",
        "meta_norad_cat_id": 33376,
        "meta_element_set_no": 999,
        "meta_rev_at_epoch": 6299,
        "meta_bstar": 0,
        "meta_mean_motion_dot": -1.37e-06,
        "meta_mean_motion_ddot": 0,
        "tle_line1": "1 33376U 08045A   25342.51614674 -.00000137  00000+0  00000+0 0  9999",
        "tle_line2": "2 33376   0.0166 308.7127 0003392 322.4993 255.1198  1.00269772 62995"
      },
      "geometry": {
        "type": "Point",
        "coordinates": [
          67.07289480285839,
          0.0318475523719512
        ]
      }
    },
    {
      "type": "Feature",
      "properties": {
        "norad_id": 35493,
        "name": "FM-5",
        "group": "intelsat",
        "lat": 0.024745417880483404,
        "lon": 77.9147342842223,
        "alt_km": 35786.97841620125,
        "timestamp": "2025-12-09T05:43:20.395652+00:00",
        "meta_object_name": "FM-5",
        "meta_object_id": "2009-034A",
        "meta_epoch": "2025-12-08T14:54:22.263264",
        "meta_mean_motion": 1.00271335,
        "meta_eccentricity": 8.36e-05,
        "meta_inclination": 0.0214,
        "meta_ra_of_asc_node": 286.8023,
        "meta_arg_of_pericenter": 253.0449,
        "meta_mean_anomaly": 35.2309,
        "meta_ephemeris_type": 0,
        "meta_classification_type": "U",
        "meta_norad_cat_id": 35493,
        "meta_element_set_no": 999,
        "meta_rev_at_epoch": 4473,
        "meta_bstar": 0,
        "meta_mean_motion_dot": -1.98e-06,
        "meta_mean_motion_ddot": 0,
        "tle_line1": "1 35493U 09034A   25342.62109101 -.00000198  00000+0  00000+0 0  9993",
        "tle_line2": "2 35493   0.0214 286.8023 0000836 253.0449  35.2309  1.00271335 44738"
      },
      "geometry": {
        "type": "Point",
        "coordinates": [
          77.9147342842223,
          0.024745417880483404
        ]
      }
    },
    {
      "type": "Feature",
      "properties": {
        "norad_id": 36097,
        "name": "INTELSAT 14 (IS-14)",
        "group": "intelsat",
        "lat": 0.019259656902177322,
        "lon": 119.05293798696424,
        "alt_km": 35795.841950914284,
        "timestamp": "2025-12-09T05:43:20.395664+00:00",
        "meta_object_name": "INTELSAT 14 (IS-14)",
        "meta_object_id": "2009-064A",
        "meta_epoch": "2025-12-08T18:31:32.561760",
        "meta_mean_motion": 1.00270539,
        "meta_eccentricity": 0.0002689,
        "meta_inclination": 0.0101,
        "meta_ra_of_asc_node": 334.8756,
        "meta_arg_of_pericenter": 289.5167,
        "meta_mean_anomaly": 46.275,
        "meta_ephemeris_type": 0,
        "meta_classification_type": "U",
        "meta_norad_cat_id": 36097,
        "meta_element_set_no": 999,
        "meta_rev_at_epoch": 5869,
        "meta_bstar": 0,
        "meta_mean_motion_dot": -2.71e-06,
        "meta_mean_motion_ddot": 0,
        "tle_line1": "1 36097U 09064A   25342.77190465 -.00000271  00000+0  00000+0 0  9998",
        "tle_line2": "2 36097   0.0101 334.8756 0002689 289.5167  46.2750  1.00270539 58697"
      },
      "geometry": {
        "type": "Point",
        "coordinates": [
          119.05293798696424,
          0.019259656902177322
        ]
      }
    },
    {
      "type": "Feature",
      "properties": {
        "norad_id": 36106,
        "name": "INTELSAT 15 (IS-15)",
        "group": "intelsat",
        "lat": -0.024113782255857193,
        "lon": -110.79413081716316,
        "alt_km": 35776.44308775949,
        "timestamp": "2025-12-09T05:43:20.395676+00:00",
        "meta_object_name": "INTELSAT 15 (IS-15)",
        "meta_object_id": "2009-067A",
        "meta_epoch": "2025-12-08T19:08:43.999008",
        "meta_mean_motion": 1.00270204,
        "meta_eccentricity": 0.0002466,
        "meta_inclination": 0.0103,
        "meta_ra_of_asc_node": 23.2604,
        "meta_arg_of_pericenter": 240.4427,
        "meta_mean_anomaly": 186.43,
        "meta_ephemeris_type": 0,
        "meta_classification_type": "U",
        "meta_norad_cat_id": 36106,
        "meta_element_set_no": 999,
        "meta_rev_at_epoch": 3932,
        "meta_bstar": 0,
        "meta_mean_motion_dot": -1.83e-06,
        "meta_mean_motion_ddot": 0,
        "tle_line1": "1 36106U 09067A   25342.79773147 -.00000183  00000+0  00000+0 0  9990",
        "tle_line2": "2 36106   0.0103  23.2604 0002466 240.4427 186.4300  1.00270204 39325"
      },
      "geometry": {
        "type": "Point",
        "coordinates": [
          -110.79413081716316,
          -0.024113782255857193
        ]
      }
    },
    {
      "type": "Feature",
      "properties": {
        "norad_id": 36131,
        "name": "DIRECTV 12",
        "group": "intelsat",
        "lat": -0.0015682897806686656,
        "lon": 61.34466952261716,
        "alt_km": 35786.21306394477,
        "timestamp": "2025-12-09T05:43:20.395689+00:00",
        "meta_object_name": "DIRECTV 12",
        "meta_object_id": "2009-075A",
        "meta_epoch": "2025-12-08T14:49:37.716096",
        "meta_mean_motion": 1.00270561,
        "meta_eccentricity": 3.69e-05,
        "meta_inclination": 0.0408,
        "meta_ra_of_asc_node": 139.5416,
        "meta_arg_of_pericenter": 200.0497,
        "meta_mean_anomaly": 217.7159,
        "meta_ephemeris_type": 0,
        "meta_classification_type": "U",
        "meta_norad_cat_id": 36131,
        "meta_element_set_no": 999,
        "meta_rev_at_epoch": 4464,
        "meta_bstar": 0,
        "meta_mean_motion_dot": -1.01e-06,
        "meta_mean_motion_ddot": 0,
        "tle_line1": "1 36131U 09075A   25342.61779764 -.00000101  00000+0  00000+0 0  9999",
        "tle_line2": "2 36131   0.0408 139.5416 0000369 200.0497 217.7159  1.00270561 44649"
      },
      "geometry": {
        "type": "Point",
        "coordinates": [
          61.34466952261716,
          -0.0015682897806686656
        ]
      }
    },
    {
      "type": "Feature",
      "properties": {
        "norad_id": 36397,
        "name": "INTELSAT 16 (IS-16)",
        "group": "intelsat",
        "lat": 0.026301488375156248,
        "lon": 87.86023686493802,
        "alt_km": 35796.22058012209,
        "timestamp": "2025-12-09T05:43:20.395702+00:00",
        "meta_object_name": "INTELSAT 16 (IS-16)",
        "meta_object_id": "2010-006A",
        "meta_epoch": "2025-12-08T18:22:40.912320",
        "meta_mean_motion": 1.00270402,
        "meta_eccentricity": 0.0002308,
        "meta_inclination": 0.017,
        "meta_ra_of_asc_node": 306.1127,
        "meta_arg_of_pericenter": 315.1568,
        "meta_mean_anomaly": 15.9695,
        "meta_ephemeris_type": 0,
        "meta_classification_type": "U",
        "meta_norad_cat_id": 36397,
        "meta_element_set_no": 999,
        "meta_rev_at_epoch": 5774,
        "meta_bstar": 0,
        "meta_mean_motion_dot": -2.42e-06,
        "meta_mean_motion_ddot": 0,
        "tle_line1": "1 36397U 10006A   25342.76575130 -.00000242  00000+0  00000+0 0  9992",
        "tle_line2": "2 36397   0.0170 306.1127 0002308 315.1568  15.9695  1.00270402 57744"
      },
      "geometry": {
        "type": "Point",
        "coordinates": [
          87.86023686493802,
          0.026301488375156248
        ]
      }
    },
    {
      "type": "Feature",
      "properties": {
        "norad_id": 37185,
        "name": "XM-5",
        "group": "intelsat",
        "lat": 0.05986508991486207,
        "lon": 48.85291290371776,
        "alt_km": 35789.14664474639,
        "timestamp": "2025-12-09T05:43:20.395714+00:00",
        "meta_object_name": "XM-5",
        "meta_object_id": "2010-053A",
        "meta_epoch": "2025-12-08T16:28:50.714112",
        "meta_mean_motion": 1.00269412,
        "meta_eccentricity": 0.0001794,
        "meta_inclination": 0.0644,
        "meta_ra_of_asc_node": 272.5939,
        "meta_arg_of_pericenter": 245.1289,
        "meta_mean_anomaly": 51.9903,
        "meta_ephemeris_type": 0,
        "meta_classification_type": "U",
        "meta_norad_cat_id": 37185,
        "meta_element_set_no": 999,
        "meta_rev_at_epoch": 5557,
        "meta_bstar": 0,
        "meta_mean_motion_dot": -2.1e-07,
        "meta_mean_motion_ddot": 0,
        "tle_line1": "1 37185U 10053A   25342.68669808 -.00000021  00000+0  00000+0 0  9992",
        "tle_line2": "2 37185   0.0644 272.5939 0001794 245.1289  51.9903  1.00269412 55573"
      },
      "geometry": {
        "type": "Point",
        "coordinates": [
          48.85291290371776,
          0.05986508991486207
        ]
      }
    }
  ]
}